COMMENT,ORIGINATOR,NORAD_CAT_ID,OBJECT_NAME,OBJECT_TYPE,CLASSIFICATION_TYPE,INTLDES,EPOCH,EPOCH_MICROSECONDS,MEAN_MOTION,ECCENTRICITY,INCLINATION,RA_OF_ASC_NODE,ARG_OF_PERICENTER,MEAN_ANOMALY,EPHEMERIS_TYPE,ELEMENT_SET_NO,REV_AT_EPOCH,BSTAR,MEAN_MOTION_DOT,MEAN_MOTION_DDOT,FILE,TLE_LINE0,TLE_LINE1,TLE_LINE2,OBJECT_ID,OBJECT_NUMBER,SEMIMAJOR_AXIS,PERIOD,APOGEE,PERIGEE,DECAYED
"GENERATED VIA SPACETRACK.ORG API","18 SPCS","48895","SPACEBEE-108","PAYLOAD","U","21059S","2023-03-27 21:54:32","361984","15.2597267","0.0008366","97.5843","222.3269","201.4006","158.6883","0","999","9697","0.0014455","0.00037247","0","3872915","0 SPACEBEE-108","1 48895U 21059S   23086.91287456  .00037247  00000-0  14455-2 0  9996","2 48895  97.5843 222.3269 0008366 201.4006 158.6883 15.25972670 96978","2021-059S","48895","6866.003","94.366","493.612","482.124","0"
"GENERATED VIA SPACETRACK.ORG API","18 SPCS","48895","SPACEBEE-108","PAYLOAD","U","21059S","2023-03-28 04:12:14","554944","15.25992538","0.0008486","97.5847","222.5939","199.7065","160.3846","0","999","9701","0.0014873","0.00038356","0","3873014","0 SPACEBEE-108","1 48895U 21059S   23087.17516846  .00038356  00000-0  14873-2 0  9999","2 48895  97.5847 222.5939 0008486 199.7065 160.3846 15.25992538 97015","2021-059S","48895","6865.944","94.365","493.635","481.982","0"
"GENERATED VIA SPACETRACK.ORG API","18 SPCS","48895","SPACEBEE-108","PAYLOAD","U","21059S","2023-03-28 08:55:31","16064","15.26008934","0.0008453","97.5847","222.7932","198.76","161.3328","0","999","9704","0.0014922","0.00038502","0","3873565","0 SPACEBEE-108","1 48895U 21059S   23087.37188676  .00038502  00000-0  14922-2 0  9995","2 48895  97.5847 222.7932 0008453 198.7600 161.3328 15.26008934 97046","2021-059S","48895","6865.894","94.364","493.563","481.956","0"
"GENERATED VIA SPACETRACK.ORG API","18 SPCS","48895","SPACEBEE-108","PAYLOAD","U","21059S","2023-03-28 21:30:54","17856","15.26052663","0.0008414","97.5848","223.3257","197.1284","162.9671","0","999","9712","0.0015591","0.00040294","0","3873921","0 SPACEBEE-108","1 48895U 21059S   23087.89645854  .00040294  00000-0  15591-2 0  9992","2 48895  97.5848 223.3257 0008414 197.1284 162.9671 15.26052663 97127","2021-059S","48895","6865.763","94.361","493.405","481.851","0"
"GENERATED VIA SPACETRACK.ORG API","18 SPCS","48895","SPACEBEE-108","PAYLOAD","U","21059S","2023-03-29 08:31:50","584512","15.26090979","0.000844","97.5847","223.7913","195.5546","164.5433","0","999","9719","0.0016205","0.00041941","0","3874299","0 SPACEBEE-108","1 48895U 21059S   23088.35544658  .00041941  00000-0  16205-2 0  9997","2 48895  97.5847 223.7913 0008440 195.5546 164.5433 15.26090979 97194","2021-059S","48895","6865.648","94.359","493.308","481.719","0"
"GENERATED VIA SPACETRACK.ORG API","18 SPCS","48895","SPACEBEE-108","PAYLOAD","U","21059S","2023-03-29 08:31:50","584512","15.26090979","0.000844","97.5847","223.7913","195.5546","164.5433","0","999","9719","0.0016205","0.00041941","0","3874492","0 SPACEBEE-108","1 48895U 21059S   23088.35544658  .00041941  00000-0  16205-2 0  9997","2 48895  97.5847 223.7913 0008440 195.5546 164.5433 15.26090979 97194","2021-059S","48895","6865.648","94.359","493.308","481.719","0"
"GENERATED VIA SPACETRACK.ORG API","18 SPCS","48895","SPACEBEE-108","PAYLOAD","U","21059S","2023-03-29 21:07:11","81568","15.26137542","0.0008457","97.5845","224.3236","194.0757","166.0246","0","999","9727","0.0016447","0.00042632","0","3874790","0 SPACEBEE-108","1 48895U 21059S   23088.87998937  .00042632  00000-0  16447-2 0  9993","2 48895  97.5845 224.3236 0008457 194.0757 166.0246 15.26137542 97279","2021-059S","48895","6865.509","94.356","493.180","481.568","0"
"GENERATED VIA SPACETRACK.ORG API","18 SPCS","48895","SPACEBEE-108","PAYLOAD","U","21059S","2023-03-30 14:25:44","574240","15.26202249","0.0008464","97.5843","225.0556","192.126","167.9775","0","999","9738","0.0018112","0.00047075","0","3875554","0 SPACEBEE-108","1 48895U 21059S   23089.60121035  .00047075  00000-0  18112-2 0  9999","2 48895  97.5843 225.0556 0008464 192.1260 167.9775 15.26202249 97382","2021-059S","48895","6865.315","94.352","492.990","481.369","0"
"GENERATED VIA SPACETRACK.ORG API","18 SPCS","48895","SPACEBEE-108","PAYLOAD","U","21059S","2023-03-30 14:25:44","574240","15.26202249","0.0008464","97.5843","225.0556","192.126","167.9775","0","999","9738","0.0018112","0.00047075","0","3875726","0 SPACEBEE-108","1 48895U 21059S   23089.60121035  .00047075  00000-0  18112-2 0  9999","2 48895  97.5843 225.0556 0008464 192.1260 167.9775 15.26202249 97382","2021-059S","48895","6865.315","94.352","492.990","481.369","0"
"GENERATED VIA SPACETRACK.ORG API","18 SPCS","48895","SPACEBEE-108","PAYLOAD","U","21059S","2023-03-31 20:19:30","408672","15.26319446","0.0008378","97.5843","226.3197","187.8505","172.2603","0","999","9757","0.0017023","0.0004438","0","3876464","0 SPACEBEE-108","1 48895U 21059S   23090.84687973  .00044380  00000-0  17023-2 0  9991","2 48895  97.5843 226.3197 0008378 187.8505 172.2603 15.26319446 97572","2021-059S","48895","6864.963","94.345","492.580","481.077","0"
"GENERATED VIA SPACETRACK.ORG API","18 SPCS","48895","SPACEBEE-108","PAYLOAD","U","21059S","2023-04-01 13:37:56","559072","15.26376743","0.0008352","97.5845","227.052","185.0351","175.0804","0","999","9768","0.0014922","0.00038932","0","3877270","0 SPACEBEE-108","1 48895U 21059S   23091.56801573  .00038932  00000-0  14922-2 0  9996","2 48895  97.5845 227.0520 0008352 185.0351 175.0804 15.26376743 97682","2021-059S","48895","6864.791","94.341","492.390","480.923","0"
"GENERATED VIA SPACETRACK.ORG API","18 SPCS","48895","SPACEBEE-108","PAYLOAD","U","21059S","2023-04-01 19:55:32","755008","15.26399997","0.0008345","97.5846","227.3183","184.1339","175.9831","0","999","9772","0.001553","0.00040558","0","3877516","0 SPACEBEE-108","1 48895U 21059S   23091.83024022  .00040558  00000-0  15530-2 0  9995","2 48895  97.5846 227.3183 0008345 184.1339 175.9831 15.26399997 97729","2021-059S","48895","6864.722","94.340","492.315","480.858","0"
"GENERATED VIA SPACETRACK.ORG API","18 SPCS","48895","SPACEBEE-108","PAYLOAD","U","21059S","2023-04-02 02:13:08","645952","15.26420778","0.0008343","97.5846","227.5846","183.1821","176.9366","0","999","9776","0.0016169","0.00042266","0","3877609","0 SPACEBEE-108","1 48895U 21059S   23092.09246118  .00042266  00000-0  16169-2 0  9993","2 48895  97.5846 227.5846 0008343 183.1821 176.9366 15.26420778 97760","2021-059S","48895","6864.659","94.338","492.252","480.797","0"
"GENERATED VIA SPACETRACK.ORG API","18 SPCS","48895","SPACEBEE-108","PAYLOAD","U","21059S","2023-04-02 13:13:55","674048","15.26457328","0.0008347","97.5847","228.0508","181.9118","178.209","0","999","9783","0.001567","0.00040998","0","3878126","0 SPACEBEE-108","1 48895U 21059S   23092.55133882  .00040998  00000-0  15670-2 0  9993","2 48895  97.5847 228.0508 0008347 181.9118 178.2090 15.26457328 97839","2021-059S","48895","6864.550","94.336","492.145","480.685","0"
"GENERATED VIA SPACETRACK.ORG API","18 SPCS","48895","SPACEBEE-108","PAYLOAD","U","21059S","2023-04-02 21:05:54","404160","15.26479335","0.0008359","97.5848","228.3836","180.8922","179.2302","0","999","9788","0.0012913","0.00033761","0","3878419","0 SPACEBEE-108","1 48895U 21059S   23092.87910190  .00033761  00000-0  12913-2 0  9990","2 48895  97.5848 228.3836 0008359 180.8922 179.2302 15.26479335 97885","2021-059S","48895","6864.484","94.335","492.087","480.611","0"
"GENERATED VIA SPACETRACK.ORG API","18 SPCS","48895","SPACEBEE-108","PAYLOAD","U","21059S","2023-04-03 08:06:39","863232","15.2651884","0.0008289","97.5849","228.8496","179.7509","180.3735","0","999","9795","0.0015479","0.00040569","0","3878810","0 SPACEBEE-108","1 48895U 21059S   23093.33796138  .00040569  00000-0  15479-2 0  9990","2 48895  97.5849 228.8496 0008289 179.7509 180.3735 15.26518840 97959","2021-059S","48895","6864.365","94.332","491.920","480.541","0"
"GENERATED VIA SPACETRACK.ORG API","18 SPCS","48895","SPACEBEE-108","PAYLOAD","U","21059S","2023-04-03 08:06:39","863232","15.2651884","0.0008289","97.5849","228.8496","179.7509","180.3735","0","999","9795","0.0015479","0.00040569","0","3879059","0 SPACEBEE-108","1 48895U 21059S   23093.33796138  .00040569  00000-0  15479-2 0  9990","2 48895  97.5849 228.8496 0008289 179.7509 180.3735 15.26518840 97959","2021-059S","48895","6864.365","94.332","491.920","480.541","0"
"GENERATED VIA SPACETRACK.ORG API","18 SPCS","48895","SPACEBEE-108","PAYLOAD","U","21059S","2023-04-04 07:42:31","238496","15.26597219","0.0008228","97.5854","229.848","176.8267","183.3025","0","999","9810","0.0015576","0.00040922","0","3879974","0 SPACEBEE-108","1 48895U 21059S   23094.32119489  .00040922  00000-0  15576-2 0  9999","2 48895  97.5854 229.8480 0008228 176.8267 183.3025 15.26597219 98101","2021-059S","48895","6864.130","94.327","491.643","480.348","0"
"GENERATED VIA SPACETRACK.ORG API","18 SPCS","48895","SPACEBEE-108","PAYLOAD","U","21059S","2023-04-04 21:51:59","945472","15.26641247","0.0008223","97.5858","230.4471","174.5531","185.5798","0","999","9819","0.0013639","0.00035847","0","3880211","0 SPACEBEE-108","1 48895U 21059S   23094.91111048  .00035847  00000-0  13639-2 0  9995","2 48895  97.5858 230.4471 0008223 174.5531 185.5798 15.26641247 98198","2021-059S","48895","6863.999","94.325","491.508","480.219","0"
"GENERATED VIA SPACETRACK.ORG API","18 SPCS","48895","SPACEBEE-108","PAYLOAD","U","21059S","2023-04-04 21:51:59","945472","15.26641247","0.0008223","97.5858","230.4471","174.5531","185.5798","0","999","9819","0.0013639","0.00035847","0","3880314","0 SPACEBEE-108","1 48895U 21059S   23094.91111048  .00035847  00000-0  13639-2 0  9995","2 48895  97.5858 230.4471 0008223 174.5531 185.5798 15.26641247 98198","2021-059S","48895","6863.999","94.325","491.508","480.219","0"
